<?xml version="1.0" encoding="UTF-8"?>
<ndm xmlns:xsi="http://www.w3.org/2001/XMLSchema-instance" xsi:noNamespaceSchemaLocation="https://sanaregistry.org/r/ndmxml_unqualified/ndmxml-2.0.0-master-2.0.xsd">
<omm id="CCSDS_OMM_VERS" version="2.0">
<header><CREATION_DATE/><ORIGINATOR/></header><body><segment><metadata><OBJECT_NAME>KUIPER-00079</OBJECT_NAME><OBJECT_ID>2025-151L</OBJECT_ID><CENTER_NAME>EARTH</CENTER_NAME><REF_FRAME>TEME</REF_FRAME><TIME_SYSTEM>UTC</TIME_SYSTEM><MEAN_ELEMENT_THEORY>SGP4</MEAN_ELEMENT_THEORY></metadata><data><meanElements><EPOCH>2025-11-13T19:02:34.779840</EPOCH><MEAN_MOTION>14.77988583</MEAN_MOTION><ECCENTRICITY>.00119896</ECCENTRICITY><INCLINATION>51.8983</INCLINATION><RA_OF_ASC_NODE>92.8791</RA_OF_ASC_NODE><ARG_OF_PERICENTER>212.3170</ARG_OF_PERICENTER><MEAN_ANOMALY>147.7058</MEAN_ANOMALY></meanElements><tleParameters><EPHEMERIS_TYPE>0</EPHEMERIS_TYPE><CLASSIFICATION_TYPE>U</CLASSIFICATION_TYPE><NORAD_CAT_ID>64826</NORAD_CAT_ID><ELEMENT_SET_NO>999</ELEMENT_SET_NO><REV_AT_EPOCH>1934</REV_AT_EPOCH><BSTAR>.94600016E-3</BSTAR><MEAN_MOTION_DOT>.6681E-4</MEAN_MOTION_DOT><MEAN_MOTION_DDOT>0</MEAN_MOTION_DDOT></tleParameters></data></segment></body></omm>
<omm id="CCSDS_OMM_VERS" version="2.0">
<header><CREATION_DATE/><ORIGINATOR/></header><body><segment><metadata><OBJECT_NAME>KUIPER-00080</OBJECT_NAME><OBJECT_ID>2025-151M</OBJECT_ID><CENTER_NAME>EARTH</CENTER_NAME><REF_FRAME>TEME</REF_FRAME><TIME_SYSTEM>UTC</TIME_SYSTEM><MEAN_ELEMENT_THEORY>SGP4</MEAN_ELEMENT_THEORY></metadata><data><meanElements><EPOCH>2025-11-13T15:24:58.342752</EPOCH><MEAN_MOTION>14.79982814</MEAN_MOTION><ECCENTRICITY>.0005124</ECCENTRICITY><INCLINATION>51.8989</INCLINATION><RA_OF_ASC_NODE>93.7319</RA_OF_ASC_NODE><ARG_OF_PERICENTER>227.5671</ARG_OF_PERICENTER><MEAN_ANOMALY>132.4858</MEAN_ANOMALY></meanElements><tleParameters><EPHEMERIS_TYPE>0</EPHEMERIS_TYPE><CLASSIFICATION_TYPE>U</CLASSIFICATION_TYPE><NORAD_CAT_ID>64827</NORAD_CAT_ID><ELEMENT_SET_NO>999</ELEMENT_SET_NO><REV_AT_EPOCH>1812</REV_AT_EPOCH><BSTAR>.11916E-2</BSTAR><MEAN_MOTION_DOT>.8886E-4</MEAN_MOTION_DOT><MEAN_MOTION_DDOT>0</MEAN_MOTION_DDOT></tleParameters></data></segment></body></omm>
<omm id="CCSDS_OMM_VERS" version="2.0">
<header><CREATION_DATE/><ORIGINATOR/></header><body><segment><metadata><OBJECT_NAME>KUIPER-00082</OBJECT_NAME><OBJECT_ID>2025-151N</OBJECT_ID><CENTER_NAME>EARTH</CENTER_NAME><REF_FRAME>TEME</REF_FRAME><TIME_SYSTEM>UTC</TIME_SYSTEM><MEAN_ELEMENT_THEORY>SGP4</MEAN_ELEMENT_THEORY></metadata><data><meanElements><EPOCH>2025-11-13T18:10:16.972896</EPOCH><MEAN_MOTION>14.79956990</MEAN_MOTION><ECCENTRICITY>.00051439</ECCENTRICITY><INCLINATION>51.9018</INCLINATION><RA_OF_ASC_NODE>80.7334</RA_OF_ASC_NODE><ARG_OF_PERICENTER>243.6975</ARG_OF_PERICENTER><MEAN_ANOMALY>116.3460</MEAN_ANOMALY></meanElements><tleParameters><EPHEMERIS_TYPE>0</EPHEMERIS_TYPE><CLASSIFICATION_TYPE>U</CLASSIFICATION_TYPE><NORAD_CAT_ID>64828</NORAD_CAT_ID><ELEMENT_SET_NO>999</ELEMENT_SET_NO><REV_AT_EPOCH>1831</REV_AT_EPOCH><BSTAR>.76052389E-3</BSTAR><MEAN_MOTION_DOT>.5585E-4</MEAN_MOTION_DOT><MEAN_MOTION_DDOT>0</MEAN_MOTION_DDOT></tleParameters></data></segment></body></omm>
<omm id="CCSDS_OMM_VERS" version="2.0">
<header><CREATION_DATE/><ORIGINATOR/></header><body><segment><metadata><OBJECT_NAME>KUIPER-00083</OBJECT_NAME><OBJECT_ID>2025-151P</OBJECT_ID><CENTER_NAME>EARTH</CENTER_NAME><REF_FRAME>TEME</REF_FRAME><TIME_SYSTEM>UTC</TIME_SYSTEM><MEAN_ELEMENT_THEORY>SGP4</MEAN_ELEMENT_THEORY></metadata><data><meanElements><EPOCH>2025-11-13T17:58:42.200256</EPOCH><MEAN_MOTION>14.79918938</MEAN_MOTION><ECCENTRICITY>.00105274</ECCENTRICITY><INCLINATION>51.8995</INCLINATION><RA_OF_ASC_NODE>88.2683</RA_OF_ASC_NODE><ARG_OF_PERICENTER>217.5442</ARG_OF_PERICENTER><MEAN_ANOMALY>142.4786</MEAN_ANOMALY></meanElements><tleParameters><EPHEMERIS_TYPE>0</EPHEMERIS_TYPE><CLASSIFICATION_TYPE>U</CLASSIFICATION_TYPE><NORAD_CAT_ID>64829</NORAD_CAT_ID><ELEMENT_SET_NO>999</ELEMENT_SET_NO><REV_AT_EPOCH>1939</REV_AT_EPOCH><BSTAR>.15744769E-2</BSTAR><MEAN_MOTION_DOT>.11807E-3</MEAN_MOTION_DOT><MEAN_MOTION_DDOT>0</MEAN_MOTION_DDOT></tleParameters></data></segment></body></omm>
<omm id="CCSDS_OMM_VERS" version="2.0">
<header><CREATION_DATE/><ORIGINATOR/></header><body><segment><metadata><OBJECT_NAME>KUIPER-00084</OBJECT_NAME><OBJECT_ID>2025-151Q</OBJECT_ID><CENTER_NAME>EARTH</CENTER_NAME><REF_FRAME>TEME</REF_FRAME><TIME_SYSTEM>UTC</TIME_SYSTEM><MEAN_ELEMENT_THEORY>SGP4</MEAN_ELEMENT_THEORY></metadata><data><meanElements><EPOCH>2025-11-13T19:20:21.329952</EPOCH><MEAN_MOTION>14.79981290</MEAN_MOTION><ECCENTRICITY>.00117952</ECCENTRICITY><INCLINATION>51.9007</INCLINATION><RA_OF_ASC_NODE>98.0053</RA_OF_ASC_NODE><ARG_OF_PERICENTER>188.2776</ARG_OF_PERICENTER><MEAN_ANOMALY>171.7994</MEAN_ANOMALY></meanElements><tleParameters><EPHEMERIS_TYPE>0</EPHEMERIS_TYPE><CLASSIFICATION_TYPE>U</CLASSIFICATION_TYPE><NORAD_CAT_ID>64830</NORAD_CAT_ID><ELEMENT_SET_NO>999</ELEMENT_SET_NO><REV_AT_EPOCH>1807</REV_AT_EPOCH><BSTAR>.12257607E-2</BSTAR><MEAN_MOTION_DOT>.9154E-4</MEAN_MOTION_DOT><MEAN_MOTION_DDOT>0</MEAN_MOTION_DDOT></tleParameters></data></segment></body></omm>
<omm id="CCSDS_OMM_VERS" version="2.0">
<header><CREATION_DATE/><ORIGINATOR/></header><body><segment><metadata><OBJECT_NAME>KUIPER-00085</OBJECT_NAME><OBJECT_ID>2025-151R</OBJECT_ID><CENTER_NAME>EARTH</CENTER_NAME><REF_FRAME>TEME</REF_FRAME><TIME_SYSTEM>UTC</TIME_SYSTEM><MEAN_ELEMENT_THEORY>SGP4</MEAN_ELEMENT_THEORY></metadata><data><meanElements><EPOCH>2025-11-13T18:58:56.078112</EPOCH><MEAN_MOTION>14.79992904</MEAN_MOTION><ECCENTRICITY>.00072783</ECCENTRICITY><INCLINATION>51.9028</INCLINATION><RA_OF_ASC_NODE>80.5962</RA_OF_ASC_NODE><ARG_OF_PERICENTER>222.3316</ARG_OF_PERICENTER><MEAN_ANOMALY>137.7085</MEAN_ANOMALY></meanElements><tleParameters><EPHEMERIS_TYPE>0</EPHEMERIS_TYPE><CLASSIFICATION_TYPE>U</CLASSIFICATION_TYPE><NORAD_CAT_ID>64831</NORAD_CAT_ID><ELEMENT_SET_NO>999</ELEMENT_SET_NO><REV_AT_EPOCH>1831</REV_AT_EPOCH><BSTAR>.10418343E-2</BSTAR><MEAN_MOTION_DOT>.7743E-4</MEAN_MOTION_DOT><MEAN_MOTION_DDOT>0</MEAN_MOTION_DDOT></tleParameters></data></segment></body></omm>
<omm id="CCSDS_OMM_VERS" version="2.0">
<header><CREATION_DATE/><ORIGINATOR/></header><body><segment><metadata><OBJECT_NAME>KUIPER-00086</OBJECT_NAME><OBJECT_ID>2025-151S</OBJECT_ID><CENTER_NAME>EARTH</CENTER_NAME><REF_FRAME>TEME</REF_FRAME><TIME_SYSTEM>UTC</TIME_SYSTEM><MEAN_ELEMENT_THEORY>SGP4</MEAN_ELEMENT_THEORY></metadata><data><meanElements><EPOCH>2025-11-13T18:43:03.689184</EPOCH><MEAN_MOTION>14.80061392</MEAN_MOTION><ECCENTRICITY>.0011019</ECCENTRICITY><INCLINATION>51.9008</INCLINATION><RA_OF_ASC_NODE>90.6318</RA_OF_ASC_NODE><ARG_OF_PERICENTER>210.9916</ARG_OF_PERICENTER><MEAN_ANOMALY>149.0397</MEAN_ANOMALY></meanElements><tleParameters><EPHEMERIS_TYPE>0</EPHEMERIS_TYPE><CLASSIFICATION_TYPE>U</CLASSIFICATION_TYPE><NORAD_CAT_ID>64832</NORAD_CAT_ID><ELEMENT_SET_NO>999</ELEMENT_SET_NO><REV_AT_EPOCH>1817</REV_AT_EPOCH><BSTAR>.14043265E-2</BSTAR><MEAN_MOTION_DOT>.10542E-3</MEAN_MOTION_DOT><MEAN_MOTION_DDOT>0</MEAN_MOTION_DDOT></tleParameters></data></segment></body></omm>
<omm id="CCSDS_OMM_VERS" version="2.0">
<header><CREATION_DATE/><ORIGINATOR/></header><body><segment><metadata><OBJECT_NAME>KUIPER-00087</OBJECT_NAME><OBJECT_ID>2025-151T</OBJECT_ID><CENTER_NAME>EARTH</CENTER_NAME><REF_FRAME>TEME</REF_FRAME><TIME_SYSTEM>UTC</TIME_SYSTEM><MEAN_ELEMENT_THEORY>SGP4</MEAN_ELEMENT_THEORY></metadata><data><meanElements><EPOCH>2025-11-14T08:00:01.999872</EPOCH><MEAN_MOTION>14.84161200</MEAN_MOTION><ECCENTRICITY>.00009852</ECCENTRICITY><INCLINATION>51.8981</INCLINATION><RA_OF_ASC_NODE>70.7502</RA_OF_ASC_NODE><ARG_OF_PERICENTER>220.8256</ARG_OF_PERICENTER><MEAN_ANOMALY>74.4821</MEAN_ANOMALY></meanElements><tleParameters><EPHEMERIS_TYPE>0</EPHEMERIS_TYPE><CLASSIFICATION_TYPE>U</CLASSIFICATION_TYPE><NORAD_CAT_ID>64833</NORAD_CAT_ID><ELEMENT_SET_NO>999</ELEMENT_SET_NO><REV_AT_EPOCH>544</REV_AT_EPOCH><BSTAR>.96933532E-3</BSTAR><MEAN_MOTION_DOT>.796E-4</MEAN_MOTION_DOT><MEAN_MOTION_DDOT>0</MEAN_MOTION_DDOT></tleParameters></data></segment></body></omm>

</ndm>
