KUIPER-00079            
1 64826U 25151L   25317.79345810  .00006681  00000+0  94600-3 0  9997
2 64826  51.8983  92.8791 0011989 212.3170 147.7058 14.77988583 19341
KUIPER-00080            
1 64827U 25151M   25317.64234193  .00008886  00000+0  11916-2 0  9990
2 64827  51.8989  93.7319 0005124 227.5671 132.4858 14.79982814 18129
KUIPER-00082            
1 64828U 25151N   25317.75714089  .00005585  00000+0  76052-3 0  9996
2 64828  51.9018  80.7334 0005143 243.6975 116.3460 14.79956990 18311
KUIPER-00083            
1 64829U 25151P   25317.74909954  .00011807  00000+0  15745-2 0  9998
2 64829  51.8995  88.2683 0010527 217.5442 142.4786 14.79918938 19396
KUIPER-00084            
1 64830U 25151Q   25317.80580243  .00009154  00000+0  12258-2 0  9991
2 64830  51.9007  98.0053 0011795 188.2776 171.7994 14.79981290 18076
KUIPER-00085            
1 64831U 25151R   25317.79092683  .00007743  00000+0  10418-2 0  9994
2 64831  51.9028  80.5962 0007278 222.3316 137.7085 14.79992904 18310
KUIPER-00086            
1 64832U 25151S   25317.77990381  .00010542  00000+0  14043-2 0  9994
2 64832  51.9008  90.6318 0011019 210.9916 149.0397 14.80061392 18179
KUIPER-00087            
1 64833U 25151T   25318.33335648  .00007960  00000+0  96934-3 0  9997
2 64833  51.8981  70.7502 0000985 220.8256  74.4821 14.84161200  5442
